[{"OBJECT_NAME":"STARLINK-5300","OBJECT_ID":"2023-021BA","EPOCH":"2026-03-09T14:26:37.309344","MEAN_MOTION":14.98354952,"ECCENTRICITY":0.000317,"INCLINATION":70.0014,"RA_OF_ASC_NODE":144.7179,"ARG_OF_PERICENTER":271.1144,"MEAN_ANOMALY":88.9652,"EPHEMERIS_TYPE":0,"CLASSIFICATION_TYPE":"U","NORAD_CAT_ID":55676,"ELEMENT_SET_NO":999,"REV_AT_EPOCH":16976,"BSTAR":0.00058231,"MEAN_MOTION_DOT":6.866e-5,"MEAN_MOTION_DDOT":0},{"OBJECT_NAME":"CZ-6A DEB","OBJECT_ID":"2024-140YZ","EPOCH":"2026-03-09T14:14:13.172928","MEAN_MOTION":14.91044947,"ECCENTRICITY":0.0161166,"INCLINATION":89.0861,"RA_OF_ASC_NODE":285.7767,"ARG_OF_PERICENTER":146.5264,"MEAN_ANOMALY":214.6281,"EPHEMERIS_TYPE":0,"CLASSIFICATION_TYPE":"U","NORAD_CAT_ID":61432,"ELEMENT_SET_NO":999,"REV_AT_EPOCH":8368,"BSTAR":0.0010034,"MEAN_MOTION_DOT":0.0001278,"MEAN_MOTION_DDOT":0}]
